NORAD_CAT_ID,OBJECT_NAME,OBJECT_TYPE,EPOCH,MEAN_MOTION,ECCENTRICITY,INCLINATION,RA_OF_ASC_NODE,ARG_OF_PERICENTER,MEAN_ANOMALY,BSTAR,MEAN_MOTION_DOT,MEAN_MOTION_DDOT,TLE_LINE0,TLE_LINE1,TLE_LINE2,SEMIMAJOR_AXIS,PERIOD,APOGEE,PERIGEE,DECAYED
55632.0,STARLINK-5546,PAYLOAD,2024-05-19 03:20:11,14.98328061,0.0003084,70.0,67.4292,269.8134,90.2671,-4.6678e-05,-6.5e-06,0.0,0 STARLINK-5546,1 55632U 23021E   24140.13901923 -.00000650  00000-0 -46678-4 0  9996,2 55632  70.0000  67.4292 0003084 269.8134  90.2671 14.98328061 69202,6950.199,96.107,574.207,569.92,0.0
55632.0,STARLINK-5546,PAYLOAD,2024-05-20 04:58:19,14.98336363,0.0003111,70.0002,64.7361,265.3328,94.7476,0.00024866,2.876e-05,0.0,0 STARLINK-5546,1 55632U 23021E   24141.20717058  .00002876  00000-0  24866-3 0  9993,2 55632  70.0002  64.7361 0003111 265.3328  94.7476 14.98336363 69361,6950.173,96.107,574.2,569.876,0.0
55632.0,STARLINK-5546,PAYLOAD,2024-05-20 20:59:41,14.98325098,0.0002865,70.0012,63.0554,265.1383,94.9449,0.00011741,1.308e-05,0.0,0 STARLINK-5546,1 55632U 23021E   24141.87478109  .00001308  00000-0  11741-3 0  9994,2 55632  70.0012  63.0554 0002865 265.1383  94.9449 14.98325098 69468,6950.208,96.107,574.064,570.082,0.0
55632.0,STARLINK-5546,PAYLOAD,2024-05-21 05:00:21,14.98327202,0.0002682,70.0015,62.2133,260.9275,99.1581,6.5652e-05,6.9e-06,0.0,0 STARLINK-5546,1 55632U 23021E   24142.20858178  .00000690  00000-0  65652-4 0  9994,2 55632  70.0015  62.2133 0002682 260.9275  99.1581 14.98327202 69817,6950.202,96.107,573.931,570.202,0.0
55632.0,STARLINK-5546,PAYLOAD,2024-05-21 21:01:41,14.98334664,0.0002736,70.0016,60.5309,254.0394,106.0464,5.2142e-05,5.29e-06,0.0,0 STARLINK-5546,1 55632U 23021E   24142.87617728  .00000529  00000-0  52142-4 0  9992,2 55632  70.0016  60.5309 0002736 254.0394 106.0464 14.98334664 69616,6950.178,96.107,573.945,570.142,0.0
55632.0,STARLINK-5546,PAYLOAD,2024-05-21 22:37:49,14.98334735,0.0002734,70.0016,60.3626,254.1934,105.8924,5.0391e-05,5.08e-06,0.0,0 STARLINK-5546,1 55632U 23021E   24142.94293702  .00000508  00000-0  50391-4 0  9993,2 55632  70.0016  60.3626 0002734 254.1934 105.8924 14.98334735 69926,6950.178,96.107,573.943,570.143,0.0
55632.0,STARLINK-5546,PAYLOAD,2024-05-22 03:26:13,14.9833787,0.000278,70.0011,59.8563,257.7346,102.3502,0.00011798,1.315e-05,0.0,0 STARLINK-5546,1 55632U 23021E   24143.14321318  .00001315  00000-0  11798-3 0  9995,2 55632  70.0011  59.8563 0002780 257.7346 102.3502 14.98337870 69951,6950.169,96.106,573.966,570.101,0.0
55632.0,STARLINK-5546,PAYLOAD,2024-05-22 21:03:42,14.98329006,0.0002768,70.001,58.0049,258.2848,101.8,0.0001027,1.133e-05,0.0,0 STARLINK-5546,1 55632U 23021E   24143.87757760  .00001133  00000-0  10270-3 0  9991,2 55632  70.0010  58.0049 0002768 258.2848 101.8000 14.98329006 69767,6950.196,96.107,573.985,570.137,0.0
55632.0,STARLINK-5546,PAYLOAD,2024-05-23 05:04:23,14.98328926,0.0002663,70.0016,57.1635,253.0311,107.0557,0.00011326,1.259e-05,0.0,0 STARLINK-5546,1 55632U 23021E   24144.21137737  .00001259  00000-0  11326-3 0  9998,2 55632  70.0016  57.1635 0002663 253.0311 107.0557 14.98328926 70112,6950.196,96.107,573.912,570.21,0.0
55632.0,STARLINK-5546,PAYLOAD,2024-05-23 21:05:43,14.98333179,0.0002692,70.0016,55.4807,247.5822,112.5052,1.0391e-05,3.1e-07,0.0,0 STARLINK-5546,1 55632U 23021E   24144.87897625  .00000031  00000-0  10391-4 0  9998,2 55632  70.0016  55.4807 0002692 247.5822 112.5052 14.98333179 69914,6950.183,96.107,573.919,570.177,0.0
55632.0,STARLINK-5546,PAYLOAD,2024-05-24 03:30:15,14.98336818,0.0002712,70.0004,54.8041,257.2281,102.8576,8.953e-05,9.76e-06,0.0,0 STARLINK-5546,1 55632U 23021E   24145.14601157  .00000976  00000-0  89530-4 0  9991,2 55632  70.0004  54.8041 0002712 257.2281 102.8576 14.98336818 70259,6950.172,96.107,573.922,570.152,0.0
55632.0,STARLINK-5546,PAYLOAD,2024-05-24 21:07:44,14.98326204,0.0002848,70.002,52.9576,258.1016,101.9824,7.4111e-06,-5e-08,0.0,0 STARLINK-5546,1 55632U 23021E   24145.88037992 -.00000005  00000-0  74111-5 0  9996,2 55632  70.0020  52.9576 0002848 258.1016 101.9824 14.98326204 70068,6950.205,96.107,574.049,570.09,0.0
55632.0,STARLINK-5546,PAYLOAD,2024-05-24 22:43:52,14.98326298,0.0002836,70.0012,52.7874,258.5693,101.5147,1.0122e-05,2.8e-07,0.0,0 STARLINK-5546,1 55632U 23021E   24145.94713930  .00000028  00000-0  10122-4 0  9991,2 55632  70.0012  52.7874 0002836 258.5693 101.5147 14.98326298 70371,6950.204,96.107,574.04,570.098,0.0
55632.0,STARLINK-5546,PAYLOAD,2024-05-25 11:32:57,14.98323478,0.0002911,70.0002,51.4378,272.8146,87.2679,0.00011912,1.328e-05,0.0,0 STARLINK-5546,1 55632U 23021E   24146.48121976  .00001328  00000-0  11912-3 0  9995,2 55632  70.0002  51.4378 0002911 272.8146  87.2679 14.98323478 70457,6950.213,96.107,574.101,570.055,0.0
55632.0,STARLINK-5546,PAYLOAD,2024-05-25 21:09:45,14.9832743,0.0002998,70.0,50.428,268.1055,91.976,1.4774e-05,8.3e-07,0.0,0 STARLINK-5546,1 55632U 23021E   24146.88177951  .00000083  00000-0  14774-4 0  9990,2 55632  70.0000  50.4280 0002998 268.1055  91.9760 14.98327430 70217,6950.201,96.107,574.15,569.982,0.0
55632.0,STARLINK-5546,PAYLOAD,2024-05-26 03:34:17,14.98331236,0.0002814,70.0007,49.7572,261.1535,98.9306,7.9157e-07,-8.4e-07,0.0,0 STARLINK-5546,1 55632U 23021E   24147.14881731 -.00000084  00000-0  79157-6 0  9998,2 55632  70.0007  49.7572 0002814 261.1535  98.9306 14.98331236 70551,6950.189,96.107,574.01,570.098,0.0
55632.0,STARLINK-5546,PAYLOAD,2024-05-26 21:11:46,14.98331627,0.0002964,70.0002,47.9037,270.2855,89.7964,0.00014024,1.581e-05,0.0,0 STARLINK-5546,1 55632U 23021E   24147.88317277  .00001581  00000-0  14024-3 0  9999,2 55632  70.0002  47.9037 0002964 270.2855  89.7964 14.98331627 70365,6950.188,96.107,574.113,569.993,0.0
55632.0,STARLINK-5546,PAYLOAD,2024-05-27 03:36:23,14.98257243,0.0002938,69.9998,47.2321,264.6475,95.4349,-0.00075993,-9.131e-05,0.0,0 STARLINK-5546,1 55632U 23021E   24148.15027642 -.00009131  00000-0 -75993-3 0  9997,2 55632  69.9998  47.2321 0002938 264.6475  95.4349 14.98257243 70408,6950.418,96.112,574.325,570.241,0.0
55632.0,STARLINK-5546,PAYLOAD,2024-05-27 10:00:50,14.98334485,0.0002916,70.0,46.5576,270.3753,89.7072,5.0779e-05,5.13e-06,0.0,0 STARLINK-5546,1 55632U 23021E   24148.41725176  .00000513  00000-0  50779-4 0  9992,2 55632  70.0000  46.5576 0002916 270.3753  89.7072 14.98334485 70445,6950.179,96.107,574.071,570.017,0.0
55632.0,STARLINK-5546,PAYLOAD,2024-05-27 22:49:55,14.98327607,0.0002669,70.0009,45.2116,263.8249,96.2606,3.1557e-05,2.84e-06,0.0,0 STARLINK-5546,1 55632U 23021E   24148.95133611  .00000284  00000-0  31557-4 0  9996,2 55632  70.0009  45.2116 0002669 263.8249  96.2606 14.98327607 70828,6950.2,96.107,573.92,570.21,0.0
55632.0,STARLINK-5546,PAYLOAD,2024-05-28 10:02:51,14.98332161,0.0002598,70.001,44.0325,266.0481,94.0381,1.8903e-05,1.33e-06,0.0,0 STARLINK-5546,1 55632U 23021E   24149.41865334  .00000133  00000-0  18903-4 0  9995,2 55632  70.0010  44.0325 0002598 266.0481  94.0381 14.98332161 70594,6950.186,96.107,573.857,570.246,0.0
55632.0,STARLINK-5546,PAYLOAD,2024-05-28 21:15:48,14.98332624,0.0002506,70.0011,42.8551,258.155,101.9328,-2.3498e-05,-3.73e-06,0.0,0 STARLINK-5546,1 55632U 23021E   24149.88597280 -.00000373  00000-0 -23498-4 0  9991,2 55632  70.0011  42.8551 0002506 258.1550 101.9328 14.98332624 70964,6950.185,96.107,573.791,570.308,0.0
55632.0,STARLINK-5546,PAYLOAD,2024-05-29 02:04:12,14.98331949,0.0002518,70.0011,42.3502,258.9301,101.1574,-3.2081e-05,-4.76e-06,0.0,0 STARLINK-5546,1 55632U 23021E   24150.08625312 -.00000476  00000-0 -32081-4 0  9995,2 55632  70.0011  42.3502 0002518 258.9301 101.1574 14.98331949 70997,6950.187,96.107,573.802,570.302,0.0
55632.0,STARLINK-5546,PAYLOAD,2024-05-29 21:17:48,14.98331265,0.000263,70.0007,40.3301,259.8282,100.258,4.7924e-05,4.79e-06,0.0,0 STARLINK-5546,1 55632U 23021E   24150.88737077  .00000479  00000-0  47924-4 0  9998,2 55632  70.0007  40.3301 0002630 259.8282 100.2580 14.98331265 70819,6950.189,96.107,573.882,570.226,0.0
55632.0,STARLINK-5546,PAYLOAD,2024-05-30 02:06:12,14.98333047,0.0002671,70.0005,39.8244,267.0568,93.0286,5.6221e-05,5.78e-06,0.0,0 STARLINK-5546,1 55632U 23021E   24151.08764959  .00000578  00000-0  56221-4 0  9990,2 55632  70.0005  39.8244 0002671 267.0568  93.0286 14.98333047 71148,6950.183,96.107,573.905,570.192,0.0
55632.0,STARLINK-5546,PAYLOAD,2024-05-30 21:19:49,14.98330548,0.0002719,70.0004,37.8046,265.0777,95.0072,3.1308e-05,2.81e-06,0.0,0 STARLINK-5546,1 55632U 23021E   24151.88877130  .00000281  00000-0  31308-4 0  9994,2 55632  70.0004  37.8046 0002719 265.0777  95.0072 14.98330548 70965,6950.191,96.107,573.946,570.166,0.0
55632.0,STARLINK-5546,PAYLOAD,2024-05-31 02:08:13,14.98331486,0.0002716,70.0005,37.2993,265.6826,94.4023,3.3276e-05,3.04e-06,0.0,0 STARLINK-5546,1 55632U 23021E   24152.08905060  .00000304  00000-0  33276-4 0  9993,2 55632  70.0005  37.2993 0002716 265.6826  94.4023 14.98331486 71297,6950.188,96.107,573.941,570.166,0.0
55632.0,STARLINK-5546,PAYLOAD,2024-05-31 21:21:50,14.98334708,0.0002852,69.9999,35.278,268.7736,91.3096,1.895e-05,1.33e-06,0.0,0 STARLINK-5546,1 55632U 23021E   24152.89016731  .00000133  00000-0  18950-4 0  9992,2 55632  69.9999  35.2780 0002852 268.7736  91.3096 14.98334708 71110,6950.178,96.107,574.026,570.061,0.0
55632.0,STARLINK-5546,PAYLOAD,2024-05-31 22:57:58,14.98336119,0.0002887,69.9999,35.1107,270.9645,89.1183,3.1974e-05,2.89e-06,0.0,0 STARLINK-5546,1 55632U 23021E   24152.95692599  .00000289  00000-0  31974-4 0  9994,2 55632  69.9999  35.1107 0002887 270.9645  89.1183 14.98336119 71428,6950.174,96.107,574.045,570.032,0.0
55632.0,STARLINK-5546,PAYLOAD,2024-06-01 14:59:22,14.98292003,0.0002968,70.0001,33.4276,268.6581,91.4238,-0.00034908,-4.252e-05,0.0,0 STARLINK-5546,1 55632U 23021E   24153.62457045 -.00004252  00000-0 -34908-3 0  9999,2 55632  70.0001  33.4276 0002968 268.6581  91.4238 14.98292003 71527,6950.31,96.109,574.238,570.113,0.0
